ONEWEB-0033             
1 45142U 20008M   26123.23100570  .00000680  00000+0  19124-2 0  9990
2 45142  87.8852  45.2242 0001714  62.6479 297.4822 13.10374252302324
ONEWEB-0035             
1 45143U 20008N   26123.18261047 -.00000294  00000+0 -87253-3 0  9994
2 45143  87.8850  45.2305 0001824  75.3701 284.7629 13.10882641302043
ONEWEB-0036             
1 45144U 20008P   26123.20838946 -.00000214  00000+0 -65543-3 0  9996
2 45144  87.8875  45.2177 0001952  85.5082 274.6268 13.09823273302473
ONEWEB-0038             
1 45145U 20008Q   26123.23007131 -.00000501  00000+0 -14495-2 0  9992
2 45145  87.8940  30.0105 0003320  59.8625 300.2832 13.11418589304432
ONEWEB-0039             
1 45146U 20008R   26123.23431888  .00000701  00000+0  19720-2 0  9999
2 45146  87.8857  45.2122 0002250  87.2097 272.9288 13.10372127302272
ONEWEB-0040             
1 45147U 20008S   26123.22767901  .00000668  00000+0  18761-2 0  9993
2 45147  87.8854  45.2258 0001938  76.6994 283.4350 13.10374215301973
ONEWEB-0043             
1 45149U 20008U   26123.22933535  .00000790  00000+0  22276-2 0  9995
2 45149  87.8857  45.2115 0002333  89.1584 270.9811 13.10374043302292
ONEWEB-0044             
1 45150U 20008V   26123.18119009 -.00000247  00000+0 -74339-3 0  9991
2 45150  87.8859  45.2191 0002060  81.0750 279.0610 13.10371207302581
ONEWEB-0045             
1 45151U 20008W   26123.22484519 -.00000425  00000+0 -12350-2 0  9990
2 45151  87.8933  29.9961 0001912  79.5162 280.6181 13.11417869304515
ONEWEB-0047             
1 45152U 20008X   26123.25090779  .00000006  00000+0 -19205-4 0  9997
2 45152  87.8857  45.2054 0001923  73.8558 286.2781 13.10370527302315
ONEWEB-0048             
1 45153U 20008Y   26123.24593161  .00000348  00000+0  96102-3 0  9998
2 45153  87.8850  45.2305 0001898  76.5141 283.6198 13.10369872301927
ONEWEB-0049             
1 45154U 20008Z   26123.24911475  .00000172  00000+0  45672-3 0  9992
2 45154  87.8853  45.2184 0001715  92.0735 268.0589 13.10370219302149
ONEWEB-0051             
1 45155U 20008AA  26123.22314990 -.00000446  00000+0 -12950-2 0  9998
2 45155  87.8924  30.0073 0001852  79.9766 280.1571 13.11414604305190
ONEWEB-0052             
1 45156U 20008AB  26123.19297638 -.00008549  00000+0 -24530-1 0  9992
2 45156  87.8858  45.2143 0001614  92.0763 268.0549 13.10426886302047
ONEWEB-0053             
1 45157U 20008AC  26123.22602040  .00000688  00000+0  19355-2 0  9998
2 45157  87.8856  45.2314 0002152  91.3349 268.8025 13.10375249302027
ONEWEB-0054             
1 45158U 20008AD  26123.18450028 -.00000384  00000+0 -11367-2 0  9991
2 45158  87.8861  45.2187 0001818  80.0057 280.1276 13.10370744302133
